{
  "type": "FeatureCollection",
  "metadata": {
    "psgc_type": "independent_component_city",
    "psgc_version": "2023-10-24",
    "namria_version": "2023-11-06",
    "feature_count": 6,
    "match_summary": {
      "exact": 6,
      "huc_map": 0,
      "fuzzy": 0,
      "non_administrative": 0,
      "unresolved": 0
    }
  },
  "features": [
    {
      "type": "Feature",
      "properties": {
        "ADM2_EN": "City of Isabela (not a province)",
        "ADM2_PCODE": "PH09097",
        "ADM1_EN": "Region IX (Zamboanga Peninsula)",
        "ADM1_PCODE": "PH09",
        "ADM0_EN": "Philippines (the)",
        "ADM0_PCODE": "PH",
        "date": "2022-11-09",
        "validOn": "2023-11-06",
        "validTo": null,
        "Shape_Leng": 1.23103306429,
        "Shape_Area": 0.0179801989504,
        "ADM2ALT1EN": null,
        "AREA_SQKM": 219.869683721,
        "psgc_id": "PH09901",
        "psgc_code": "0990100000",
        "psgc_name": "City of Isabela (not a province)",
        "psgc_status": "matched",
        "match_confidence": 1.0,
        "psgc_type": "independent_component_city",
        "match_method": "exact"
      },
      "geometry": {
        "type": "MultiPolygon",
        "coordinates": [
          [
            [
              [
                121.99130968400004,
                6.746232722000059
              ],
              [
                121.97647348100008,
                6.735874483000032
              ],
              [
                121.98076192700012,
                6.727592127000037
              ],
              [
                121.96988482900008,
                6.711157057000037
              ],
              [
                121.94629142500003,
                6.719048711000028
              ],
              [
                121.94111781900006,
                6.711839696000027
              ],
              [
                121.94570734000001,
                6.710388085000034
              ],
              [
                121.94694107900011,
                6.713948497000047
              ],
              [
                121.94706626900006,
                6.714158180000027
              ],
              [
                121.95045969600005,
                6.715431494000029
              ],
              [
                121.95036103200005,
                6.709775867000076
              ],
              [
                121.94673609400002,
                6.708664400000032
              ],
              [
                121.94339530600007,
                6.709580495000068
              ],
              [
                121.94025148900005,
                6.712330834000056
              ],
              [
                121.95244305000006,
                6.743546864000052
              ],
              [
                121.98016334500005,
                6.755136376000053
              ],
              [
                121.99130968400004,
                6.746232722000059
              ]
            ]
          ],
          [
            [
              [
                122.0325893050001,
                6.741121540000051
              ],
              [
                122.03790037800002,
                6.712505753000073
              ],
              [
                122.03145469100002,
                6.710348628000077
              ],
              [
                122.029955,
                6.691791700000067
              ],
              [
                122.03681080000001,
                6.693723900000066
              ],
              [
                122.05126759500001,
                6.675526478000052
              ],
              [
                122.04762770000002,
                6.657631900000069
              ],
              [
                122.03646870000011,
                6.653589700000055
              ],
              [
                122.02683060800007,
                6.616179342000066
              ],
              [
                122.03492514400011,
                6.615837529000032
              ],
              [
                122.04289291400005,
                6.564819979000049
              ],
              [
                121.93648783900005,
                6.564648783000052
              ],
              [
                121.943088052,
                6.615481374000069
              ],
              [
                121.92881620000003,
                6.618551100000047
              ],
              [
                121.9242461770001,
                6.635754591000023
              ],
              [
                121.91634573700003,
                6.638327680000032
              ],
              [
                121.91717787000005,
                6.674741475000076
              ],
              [
                121.92235495000011,
                6.673539847000029
              ],
              [
                121.92877861700003,
                6.66738102100004
              ],
              [
                121.931126145,
                6.666423077000047
              ],
              [
                121.94174554900007,
                6.676486690000047
              ],
              [
                121.94344919800005,
                6.691514033000033
              ],
              [
                121.97018964300003,
                6.704820123000047
              ],
              [
                121.99877015400011,
                6.738519242000052
              ],
              [
                122.01424761100009,
                6.746055249000051
              ],
              [
                122.0325893050001,
                6.741121540000051
              ]
            ]
          ],
          [
            [
              [
                121.99011524900004,
                6.734195735000071
              ],
              [
                121.99222498400002,
                6.736460298000054
              ],
              [
                121.99510123300001,
                6.736206777000064
              ],
              [
                121.99011524900004,
                6.734195735000071
              ]
            ]
          ],
          [
            [
              [
                121.97965516500005,
                6.735993836000034
              ],
              [
                121.98262356700002,
                6.733138863000022
              ],
              [
                121.98397380800009,
                6.732597328000054
              ],
              [
                121.983495102,
                6.730531993000056
              ],
              [
                121.97965516500005,
                6.735993836000034
              ]
            ]
          ],
          [
            [
              [
                121.87488798000004,
                6.687176560000069
              ],
              [
                121.88404680200006,
                6.690673789000073
              ],
              [
                121.8809247480001,
                6.687232743000038
              ],
              [
                121.87488798000004,
                6.687176560000069
              ]
            ]
          ]
        ]
      }
    },
    {
      "type": "Feature",
      "properties": {
        "ADM3_EN": "Dagupan City",
        "ADM3_PCODE": "PH0105518",
        "ADM2_EN": "Pangasinan",
        "ADM2_PCODE": "PH01055",
        "ADM1_EN": "Region I (Ilocos Region)",
        "ADM1_PCODE": "PH01",
        "ADM0_EN": "Philippines (the)",
        "ADM0_PCODE": "PH",
        "date": "2022-11-09",
        "validOn": "2023-11-06",
        "validTo": null,
        "ADM3_REF": null,
        "ADM3ALT1EN": null,
        "Shape_Leng": 0.414254751889,
        "Shape_Area": 0.00364771307805,
        "AREA_SQKM": 43.1931142398,
        "psgc_id": "PH0105518",
        "psgc_code": "0105518000",
        "psgc_name": "City of Dagupan",
        "psgc_status": "matched",
        "match_confidence": 1.0,
        "psgc_type": "independent_component_city",
        "match_method": "exact",
        "namria_adm2_pcode": "PH01055",
        "region": "Region I (Ilocos Region)",
        "province": null
      },
      "geometry": {
        "type": "Polygon",
        "coordinates": [
          [
            [
              120.38074187100005,
              16.096012649000045
            ],
            [
              120.36529527800008,
              16.08994957300007
            ],
            [
              120.37271031900002,
              16.079079286000024
            ],
            [
              120.35756599600006,
              16.067493090000028
            ],
            [
              120.37942014500004,
              16.046041323000054
            ],
            [
              120.37902482100003,
              16.03580540400003
            ],
            [
              120.36294545100009,
              16.03631335700004
            ],
            [
              120.35984541300002,
              16.028115120000052
            ],
            [
              120.31790581900009,
              16.008553989000063
            ],
            [
              120.30772391800008,
              16.040943146000075
            ],
            [
              120.31844352900009,
              16.050839371000052
            ],
            [
              120.310400221,
              16.061165550000055
            ],
            [
              120.32831637100003,
              16.069498791000058
            ],
            [
              120.33036472600008,
              16.06245843000005
            ],
            [
              120.33327329300005,
              16.075793825000062
            ],
            [
              120.37651335400005,
              16.113400940000076
            ],
            [
              120.38483288300006,
              16.11090385500006
            ],
            [
              120.38074187100005,
              16.096012649000045
            ]
          ]
        ]
      }
    },
    {
      "type": "Feature",
      "properties": {
        "ADM3_EN": "City of Santiago",
        "ADM3_PCODE": "PH0203135",
        "ADM2_EN": "Isabela",
        "ADM2_PCODE": "PH02031",
        "ADM1_EN": "Region II (Cagayan Valley)",
        "ADM1_PCODE": "PH02",
        "ADM0_EN": "Philippines (the)",
        "ADM0_PCODE": "PH",
        "date": "2022-11-09",
        "validOn": "2023-11-06",
        "validTo": null,
        "ADM3_REF": null,
        "ADM3ALT1EN": null,
        "Shape_Leng": 0.648320736476,
        "Shape_Area": 0.0128611808312,
        "AREA_SQKM": 151.816539297,
        "psgc_id": "PH0203135",
        "psgc_code": "0203135000",
        "psgc_name": "City of Santiago",
        "psgc_status": "matched",
        "match_confidence": 1.0,
        "psgc_type": "independent_component_city",
        "match_method": "exact",
        "namria_adm2_pcode": "PH02031",
        "region": "Region II (Cagayan Valley)",
        "province": null
      },
      "geometry": {
        "type": "Polygon",
        "coordinates": [
          [
            [
              121.57890092500008,
              16.75639622400007
            ],
            [
              121.61162983600002,
              16.68053059400006
            ],
            [
              121.59850548500003,
              16.657537776000026
            ],
            [
              121.59405288700009,
              16.628806096000062
            ],
            [
              121.61100464900005,
              16.598459825000077
            ],
            [
              121.59952867000004,
              16.57575489800007
            ],
            [
              121.58379264000007,
              16.575755187000027
            ],
            [
              121.57858267100005,
              16.598471049000068
            ],
            [
              121.55481491400008,
              16.62891236200005
            ],
            [
              121.5232009120001,
              16.637130467000077
            ],
            [
              121.49844839100001,
              16.632445387000075
            ],
            [
              121.51891348200002,
              16.69141094300005
            ],
            [
              121.50587226300001,
              16.698662281000054
            ],
            [
              121.48897482500001,
              16.694016498000053
            ],
            [
              121.48603478300004,
              16.70281257000005
            ],
            [
              121.4880133580001,
              16.731682302000024
            ],
            [
              121.50405215800004,
              16.731110109000042
            ],
            [
              121.51144279500011,
              16.742892745000063
            ],
            [
              121.52523673500002,
              16.736017065000055
            ],
            [
              121.55434104900007,
              16.73990460300007
            ],
            [
              121.5565806080001,
              16.75640910900006
            ],
            [
              121.57890092500008,
              16.75639622400007
            ]
          ]
        ]
      }
    },
    {
      "type": "Feature",
      "properties": {
        "ADM3_EN": "Naga City",
        "ADM3_PCODE": "PH0501724",
        "ADM2_EN": "Camarines Sur",
        "ADM2_PCODE": "PH05017",
        "ADM1_EN": "Region V (Bicol Region)",
        "ADM1_PCODE": "PH05",
        "ADM0_EN": "Philippines (the)",
        "ADM0_PCODE": "PH",
        "date": "2022-11-09",
        "validOn": "2023-11-06",
        "validTo": null,
        "ADM3_REF": null,
        "ADM3ALT1EN": null,
        "Shape_Leng": 0.572084621969,
        "Shape_Area": 0.00666624252076,
        "AREA_SQKM": 79.7994266969,
        "psgc_id": "PH0501724",
        "psgc_code": "0501724000",
        "psgc_name": "City of Naga",
        "psgc_status": "matched",
        "match_confidence": 1.0,
        "psgc_type": "independent_component_city",
        "match_method": "exact",
        "namria_adm2_pcode": "PH05017",
        "region": "Region V (Bicol Region)",
        "province": null
      },
      "geometry": {
        "type": "Polygon",
        "coordinates": [
          [
            [
              123.3764742400001,
              13.655068811000035
            ],
            [
              123.36593399100002,
              13.649047242000051
            ],
            [
              123.31835544700004,
              13.649775145000035
            ],
            [
              123.25724792300002,
              13.617074241000068
            ],
            [
              123.2457845670001,
              13.62238553900005
            ],
            [
              123.23916104500006,
              13.610439985000028
            ],
            [
              123.18613312000002,
              13.602327056000036
            ],
            [
              123.17284881500007,
              13.626004928000043
            ],
            [
              123.20047485200007,
              13.653211602000056
            ],
            [
              123.28900334600007,
              13.673446286000058
            ],
            [
              123.3253712610001,
              13.674360222000075
            ],
            [
              123.3764742400001,
              13.655068811000035
            ]
          ]
        ]
      }
    },
    {
      "type": "Feature",
      "properties": {
        "ADM3_EN": "Ormoc City",
        "ADM3_PCODE": "PH0803738",
        "ADM2_EN": "Leyte",
        "ADM2_PCODE": "PH08037",
        "ADM1_EN": "Region VIII (Eastern Visayas)",
        "ADM1_PCODE": "PH08",
        "ADM0_EN": "Philippines (the)",
        "ADM0_PCODE": "PH",
        "date": "2022-11-09",
        "validOn": "2023-11-06",
        "validTo": null,
        "ADM3_REF": null,
        "ADM3ALT1EN": null,
        "Shape_Leng": 1.44124150965,
        "Shape_Area": 0.0447473985035,
        "AREA_SQKM": 540.845600278,
        "psgc_id": "PH0803738",
        "psgc_code": "0803738000",
        "psgc_name": "Ormoc City",
        "psgc_status": "matched",
        "match_confidence": 1.0,
        "psgc_type": "independent_component_city",
        "match_method": "exact",
        "namria_adm2_pcode": "PH08037",
        "region": "Region VIII (Eastern Visayas)",
        "province": null
      },
      "geometry": {
        "type": "Polygon",
        "coordinates": [
          [
            [
              124.66798864900011,
              11.141773493000073
            ],
            [
              124.70777493000003,
              11.135879567000075
            ],
            [
              124.76222036500008,
              11.09663798400004
            ],
            [
              124.7605025250001,
              11.069725155000071
            ],
            [
              124.80437859100005,
              11.083888604000038
            ],
            [
              124.80392732400003,
              11.065646210000068
            ],
            [
              124.8126724220001,
              11.061479978000023
            ],
            [
              124.82552680900005,
              11.068505106000032
            ],
            [
              124.83393140300007,
              11.055331803000058
            ],
            [
              124.83659224700011,
              11.02957578400003
            ],
            [
              124.85267752100003,
              11.032068675000062
            ],
            [
              124.85260714500009,
              11.021461694000038
            ],
            [
              124.8722920990001,
              11.025697587000025
            ],
            [
              124.88175526700002,
              11.017840652000075
            ],
            [
              124.86655171200005,
              11.00740733200007
            ],
            [
              124.84609415500006,
              11.009988426000064
            ],
            [
              124.77278346000003,
              10.987413968000055
            ],
            [
              124.756943868,
              10.960867446000066
            ],
            [
              124.71466881300012,
              10.968203936000066
            ],
            [
              124.72917129300004,
              10.976881638000066
            ],
            [
              124.72832513900005,
              10.986777547000031
            ],
            [
              124.71793083300008,
              10.994493268000042
            ],
            [
              124.70317971300005,
              10.986782262000077
            ],
            [
              124.6939513430001,
              11.002867072000072
            ],
            [
              124.65821975900008,
              10.949370320000071
            ],
            [
              124.59474025600002,
              11.013993411000058
            ],
            [
              124.57120469900008,
              11.010894987000029
            ],
            [
              124.56953976300008,
              10.998173747000067
            ],
            [
              124.54072430200006,
              10.98129515900007
            ],
            [
              124.49137482700007,
              11.046283835000054
            ],
            [
              124.47374634300002,
              11.081763605000049
            ],
            [
              124.48423250000008,
              11.089713733000053
            ],
            [
              124.48331607500006,
              11.104267253000046
            ],
            [
              124.46618828200008,
              11.120964263000076
            ],
            [
              124.52761640300002,
              11.148658692000026
            ],
            [
              124.53803583900003,
              11.135935628000027
            ],
            [
              124.55143502700003,
              11.141191504000062
            ],
            [
              124.56632268200008,
              11.13230791500007
            ],
            [
              124.58312178000006,
              11.111665894000055
            ],
            [
              124.6137496990001,
              11.104259461000026
            ],
            [
              124.63182190100008,
              11.125193762000038
            ],
            [
              124.636283563,
              11.119383017000075
            ],
            [
              124.64008766800009,
              11.128815221000025
            ],
            [
              124.64625938200004,
              11.125436381000043
            ],
            [
              124.66798864900011,
              11.141773493000073
            ]
          ]
        ]
      }
    },
    {
      "type": "Feature",
      "properties": {
        "ADM3_EN": "Cotabato City",
        "ADM3_PCODE": "PH1908703",
        "ADM2_EN": "Maguindanao del Norte",
        "ADM2_PCODE": "PH19087",
        "ADM1_EN": "Bangsamoro Autonomous Region In Muslim Mindanao (BARMM)",
        "ADM1_PCODE": "PH19",
        "ADM0_EN": "Philippines (the)",
        "ADM0_PCODE": "PH",
        "date": "2022-11-09",
        "validOn": "2023-11-06",
        "validTo": null,
        "ADM3_REF": null,
        "ADM3ALT1EN": null,
        "Shape_Leng": 0.649199752637,
        "Shape_Area": 0.00704968544553,
        "AREA_SQKM": 86.107342781,
        "psgc_id": "PH1908703",
        "psgc_code": "1908703000",
        "psgc_name": "City of Cotabato",
        "psgc_status": "matched",
        "match_confidence": 1.0,
        "psgc_type": "independent_component_city",
        "match_method": "exact",
        "namria_adm2_pcode": "PH19087",
        "region": "Bangsamoro Autonomous Region In Muslim Mindanao (BARMM)",
        "province": null
      },
      "geometry": {
        "type": "Polygon",
        "coordinates": [
          [
            [
              124.23974904700003,
              7.268951048000076
            ],
            [
              124.24553106200005,
              7.262149083000054
            ],
            [
              124.23449351600004,
              7.233458753000036
            ],
            [
              124.26299592600003,
              7.224836556000071
            ],
            [
              124.25664982500007,
              7.211387782000031
            ],
            [
              124.30240955700003,
              7.170979695000028
            ],
            [
              124.3048182010001,
              7.155852829000025
            ],
            [
              124.31679073500004,
              7.149050121000073
            ],
            [
              124.31334522100008,
              7.135298159000058
            ],
            [
              124.28800650100004,
              7.161001119000048
            ],
            [
              124.27546631000007,
              7.15986524300007
            ],
            [
              124.2686723920001,
              7.172592119000058
            ],
            [
              124.25298880100001,
              7.165788297000063
            ],
            [
              124.22552379800004,
              7.176664622000033
            ],
            [
              124.21189552500005,
              7.195292709000057
            ],
            [
              124.18912131500008,
              7.191267986000071
            ],
            [
              124.1578029530001,
              7.203421529000025
            ],
            [
              124.16963274500006,
              7.215109280000036
            ],
            [
              124.17012147700007,
              7.209593624000036
            ],
            [
              124.1691362470001,
              7.222105511000052
            ],
            [
              124.18142425500002,
              7.225452720000021
            ],
            [
              124.1878378450001,
              7.24302212200007
            ],
            [
              124.19861649900008,
              7.242654008000045
            ],
            [
              124.18924799800004,
              7.250394842000048
            ],
            [
              124.20729837300007,
              7.25052183300005
            ],
            [
              124.21963920900009,
              7.267375298000047
            ],
            [
              124.23974904700003,
              7.268951048000076
            ]
          ]
        ]
      }
    }
  ]
}