{
  "type": "FeatureCollection",
  "metadata": {
    "psgc_type": "special_geographic_area",
    "psgc_version": "2023-10-24",
    "namria_version": "2023-11-06",
    "feature_count": 9,
    "match_summary": {
      "exact": 1,
      "huc_map": 8,
      "fuzzy": 0,
      "non_administrative": 0,
      "unresolved": 0
    }
  },
  "features": [
    {
      "type": "Feature",
      "properties": {
        "ADM2_EN": "Special Geographic Area",
        "ADM2_PCODE": "PH19099",
        "ADM1_EN": "Bangsamoro Autonomous Region In Muslim Mindanao (BARMM)",
        "ADM1_PCODE": "PH19",
        "ADM0_EN": "Philippines (the)",
        "ADM0_PCODE": "PH",
        "date": "2022-11-09",
        "validOn": "2023-11-06",
        "validTo": null,
        "Shape_Leng": 4.03441319616,
        "Shape_Area": 0.0444357913705,
        "ADM2ALT1EN": null,
        "AREA_SQKM": 542.830197667,
        "psgc_id": "PH19999",
        "psgc_code": "1999900000",
        "psgc_name": "Special Geographic Area",
        "psgc_status": "matched",
        "match_confidence": 1.0,
        "psgc_type": "special_geographic_area",
        "match_method": "exact"
      },
      "geometry": {
        "type": "MultiPolygon",
        "coordinates": [
          [
            [
              [
                124.40575238200006,
                7.363209477000055
              ],
              [
                124.41315535800004,
                7.373654388000034
              ],
              [
                124.45200512000008,
                7.423535557000037
              ],
              [
                124.44759852600009,
                7.365182608000055
              ],
              [
                124.40575238200006,
                7.363209477000055
              ]
            ]
          ],
          [
            [
              [
                124.8844126140001,
                7.311216527000056
              ],
              [
                124.91047971500006,
                7.303419765000058
              ],
              [
                124.90956944600009,
                7.215872876000049
              ],
              [
                124.86061636400007,
                7.240718134000076
              ],
              [
                124.84900541200011,
                7.191669795000053
              ],
              [
                124.85838519200001,
                7.168437985000025
              ],
              [
                124.848628157,
                7.147523283000055
              ],
              [
                124.81587571900002,
                7.151785265000058
              ],
              [
                124.80222036000009,
                7.141984205000028
              ],
              [
                124.82007659900012,
                7.18370793400004
              ],
              [
                124.81593695600009,
                7.198247551000065
              ],
              [
                124.80637042600006,
                7.200944
              ],
              [
                124.8194223480001,
                7.222665378000045
              ],
              [
                124.80035678900003,
                7.23306136900004
              ],
              [
                124.76258045100008,
                7.232668790000048
              ],
              [
                124.77089086400008,
                7.238207081000041
              ],
              [
                124.76108183800011,
                7.267579830000045
              ],
              [
                124.77388098200004,
                7.278857088000052
              ],
              [
                124.7959469440001,
                7.280700886000034
              ],
              [
                124.84027179800012,
                7.270744900000068
              ],
              [
                124.83701749300008,
                7.280778245000022
              ],
              [
                124.85737020400006,
                7.287369566000052
              ],
              [
                124.84801374500012,
                7.295182692000026
              ],
              [
                124.86545697000008,
                7.294235430000072
              ],
              [
                124.86184637200006,
                7.306251954000061
              ],
              [
                124.8844126140001,
                7.311216527000056
              ]
            ]
          ],
          [
            [
              [
                124.71749493700008,
                7.195856625000033
              ],
              [
                124.70107615000006,
                7.177725300000077
              ],
              [
                124.695341804,
                7.183436524000058
              ],
              [
                124.69763091800007,
                7.16549357100007
              ],
              [
                124.69157285900008,
                7.162598031000073
              ],
              [
                124.69763091800007,
                7.158094415000051
              ],
              [
                124.67920084800005,
                7.152254865000032
              ],
              [
                124.68342779300008,
                7.171674949000021
              ],
              [
                124.66615295300005,
                7.192941088000055
              ],
              [
                124.68010751500003,
                7.192794583000023
              ],
              [
                124.67810596400011,
                7.205074290000027
              ],
              [
                124.7039443540001,
                7.197747157000038
              ],
              [
                124.70555872600005,
                7.204204649000076
              ],
              [
                124.69677811300005,
                7.218300881000062
              ],
              [
                124.67954501000008,
                7.220171191000077
              ],
              [
                124.66756101100009,
                7.235391182000058
              ],
              [
                124.71553998800005,
                7.254183143000034
              ],
              [
                124.72659393700008,
                7.224422698000069
              ],
              [
                124.7184048370001,
                7.213599676000058
              ],
              [
                124.7255403690001,
                7.202680876000045
              ],
              [
                124.71130522200008,
                7.200182641000026
              ],
              [
                124.71749493700008,
                7.195856625000033
              ]
            ]
          ],
          [
            [
              [
                124.40711940300002,
                7.222196041000075
              ],
              [
                124.39464956800009,
                7.224298599000065
              ],
              [
                124.37708222800006,
                7.169739380000067
              ],
              [
                124.33983748000003,
                7.169215253000061
              ],
              [
                124.36626343700004,
                7.235560970000051
              ],
              [
                124.41539658400006,
                7.235743985000056
              ],
              [
                124.40711940300002,
                7.222196041000075
              ]
            ]
          ],
          [
            [
              [
                124.47451455500004,
                7.207256223000059
              ],
              [
                124.44998205200011,
                7.207310200000052
              ],
              [
                124.45056625000007,
                7.230499030000033
              ],
              [
                124.46756777700011,
                7.228463736000037
              ],
              [
                124.47451455500004,
                7.207256223000059
              ]
            ]
          ],
          [
            [
              [
                124.78935738200005,
                7.166786307000052
              ],
              [
                124.7593408570001,
                7.150634443000058
              ],
              [
                124.72775273800005,
                7.176627422000024
              ],
              [
                124.74589584700004,
                7.216607743000054
              ],
              [
                124.78445446500007,
                7.202298681000059
              ],
              [
                124.78935738200005,
                7.166786307000052
              ]
            ]
          ],
          [
            [
              [
                124.51915130700002,
                7.030999491000046
              ],
              [
                124.50123402500003,
                7.030097615000045
              ],
              [
                124.45619250800007,
                7.060902179000038
              ],
              [
                124.45674244800011,
                7.07967992500005
              ],
              [
                124.47159402600005,
                7.086087509000038
              ],
              [
                124.471425726,
                7.09268557200005
              ],
              [
                124.44505001100003,
                7.110413201000028
              ],
              [
                124.4606424540001,
                7.133282154000028
              ],
              [
                124.46492467300004,
                7.171735246000026
              ],
              [
                124.4824294550001,
                7.170752659000073
              ],
              [
                124.4820925680001,
                7.150595595000027
              ],
              [
                124.51952133100008,
                7.137542698000061
              ],
              [
                124.5219166170001,
                7.099576377000062
              ],
              [
                124.5377773990001,
                7.098844263000046
              ],
              [
                124.51915130700002,
                7.030999491000046
              ]
            ]
          ],
          [
            [
              [
                124.8838332250001,
                7.15406798600003
              ],
              [
                124.89287135900008,
                7.130700541000067
              ],
              [
                124.86789944100008,
                7.131724458000065
              ],
              [
                124.8838332250001,
                7.15406798600003
              ]
            ]
          ],
          [
            [
              [
                124.73650988600002,
                7.113428433000024
              ],
              [
                124.72544583500007,
                7.106283623000024
              ],
              [
                124.73279874600007,
                7.096606915000052
              ],
              [
                124.72322608800005,
                7.086930206000034
              ],
              [
                124.7096294800001,
                7.100683858000025
              ],
              [
                124.7123432410001,
                7.079361444000028
              ],
              [
                124.6996467130001,
                7.06744027600007
              ],
              [
                124.6920710070001,
                7.089715962000071
              ],
              [
                124.66457708100006,
                7.100798032000057
              ],
              [
                124.67581631100006,
                7.134801803000073
              ],
              [
                124.70744357700005,
                7.116904495000028
              ],
              [
                124.73650988600002,
                7.113428433000024
              ]
            ]
          ],
          [
            [
              [
                124.71662410500005,
                7.019548900000075
              ],
              [
                124.70593703000009,
                7.006701242000076
              ],
              [
                124.72158600500006,
                6.998578679000047
              ],
              [
                124.70306805100006,
                6.991015007000044
              ],
              [
                124.70765096500008,
                6.980954952000047
              ],
              [
                124.68525802600004,
                6.973540318000062
              ],
              [
                124.68917027000009,
                6.953755542000067
              ],
              [
                124.67720998200002,
                6.94663898400006
              ],
              [
                124.66498887700004,
                6.947644990000072
              ],
              [
                124.65675453500012,
                6.961356473000023
              ],
              [
                124.64762596600008,
                6.956028369000023
              ],
              [
                124.62736147500004,
                6.974825770000052
              ],
              [
                124.58488102700005,
                6.970634080000025
              ],
              [
                124.55661262100011,
                7.011669791000031
              ],
              [
                124.56594044700012,
                7.015494871000044
              ],
              [
                124.57602387800011,
                6.993941117000077
              ],
              [
                124.60947618800003,
                6.994183876000022
              ],
              [
                124.61374856400005,
                7.036584363000031
              ],
              [
                124.5986204400001,
                7.039927823000028
              ],
              [
                124.59526733400003,
                7.049137330000065
              ],
              [
                124.56662752200009,
                7.051214263000077
              ],
              [
                124.55571046600005,
                7.023554212000022
              ],
              [
                124.54641240900003,
                7.01925284400005
              ],
              [
                124.53013461400008,
                7.03409216700004
              ],
              [
                124.54002112,
                7.051938963000055
              ],
              [
                124.58432379600004,
                7.065773281000077
              ],
              [
                124.58076324500007,
                7.083439091000059
              ],
              [
                124.56165952000003,
                7.08330214700004
              ],
              [
                124.56094382300012,
                7.121408170000052
              ],
              [
                124.5734668880001,
                7.119293407000043
              ],
              [
                124.57293732100004,
                7.096565168000041
              ],
              [
                124.58944771100005,
                7.080767951000041
              ],
              [
                124.61031446700008,
                7.078884297000059
              ],
              [
                124.61719935000008,
                7.123848531000021
              ],
              [
                124.63107595500003,
                7.125747281000031
              ],
              [
                124.63551803500002,
                7.116306791000056
              ],
              [
                124.6262059280001,
                7.095174813000028
              ],
              [
                124.6471812850001,
                7.063937114000055
              ],
              [
                124.62493449500005,
                7.064025092000065
              ],
              [
                124.6255105570001,
                7.048378659000036
              ],
              [
                124.6378397200001,
                7.034306416000049
              ],
              [
                124.6670154310001,
                7.034358027000053
              ],
              [
                124.67066556700001,
                7.049032415000056
              ],
              [
                124.6870667280001,
                7.034327589000043
              ],
              [
                124.68164999500004,
                7.01214174200004
              ],
              [
                124.71662410500005,
                7.019548900000075
              ]
            ]
          ],
          [
            [
              [
                124.69010008700002,
                7.073352400000033
              ],
              [
                124.68712711,
                7.052724244000046
              ],
              [
                124.66456738900001,
                7.062823792000074
              ],
              [
                124.66892037100001,
                7.086446671000033
              ],
              [
                124.69010008700002,
                7.073352400000033
              ]
            ]
          ]
        ]
      }
    },
    {
      "type": "Feature",
      "properties": {
        "ADM3_EN": "Special Geographic Area - Carmen",
        "ADM3_PCODE": "PH1909901",
        "ADM2_EN": "Special Geographic Area",
        "ADM2_PCODE": "PH19099",
        "ADM1_EN": "Bangsamoro Autonomous Region In Muslim Mindanao (BARMM)",
        "ADM1_PCODE": "PH19",
        "ADM0_EN": "Philippines (the)",
        "ADM0_PCODE": "PH",
        "date": "2022-11-09",
        "validOn": "2023-11-06",
        "validTo": null,
        "ADM3_REF": null,
        "ADM3ALT1EN": null,
        "Shape_Leng": 0.795495237943,
        "Shape_Area": 0.00771236332242,
        "AREA_SQKM": 94.198422945,
        "psgc_id": "PH19999",
        "psgc_code": null,
        "psgc_name": null,
        "psgc_status": "mapped-no-psgc",
        "match_confidence": null,
        "psgc_type": "special_geographic_area",
        "match_method": "huc_map"
      },
      "geometry": {
        "type": "MultiPolygon",
        "coordinates": [
          [
            [
              [
                124.84027179800012,
                7.270744900000068
              ],
              [
                124.85061175400006,
                7.258305137000036
              ],
              [
                124.83696301200007,
                7.257223418000024
              ],
              [
                124.82991667300007,
                7.242462982000063
              ],
              [
                124.83702477200006,
                7.232400866000035
              ],
              [
                124.81972791400005,
                7.218369812000049
              ],
              [
                124.80035678900003,
                7.23306136900004
              ],
              [
                124.76258045100008,
                7.232668790000048
              ],
              [
                124.77089086400008,
                7.238207081000041
              ],
              [
                124.76108183800011,
                7.267579830000045
              ],
              [
                124.77388098200004,
                7.278857088000052
              ],
              [
                124.84027179800012,
                7.270744900000068
              ]
            ]
          ],
          [
            [
              [
                124.71000023400006,
                7.187547801000051
              ],
              [
                124.69677811300005,
                7.218300881000062
              ],
              [
                124.67954501000008,
                7.220171191000077
              ],
              [
                124.66756101100009,
                7.235391182000058
              ],
              [
                124.71553998800005,
                7.254183143000034
              ],
              [
                124.72659393700008,
                7.224422698000069
              ],
              [
                124.7184048370001,
                7.213599676000058
              ],
              [
                124.7255403690001,
                7.202680876000045
              ],
              [
                124.71299731700003,
                7.202625005000073
              ],
              [
                124.71749493700008,
                7.195856625000033
              ],
              [
                124.71000023400006,
                7.187547801000051
              ]
            ]
          ],
          [
            [
              [
                124.78935738200005,
                7.166786307000052
              ],
              [
                124.7593408570001,
                7.150634443000058
              ],
              [
                124.72775273800005,
                7.176627422000024
              ],
              [
                124.74589584700004,
                7.216607743000054
              ],
              [
                124.78445446500007,
                7.202298681000059
              ],
              [
                124.78935738200005,
                7.166786307000052
              ]
            ]
          ]
        ]
      }
    },
    {
      "type": "Feature",
      "properties": {
        "ADM3_EN": "Special Geographic Area - Kabacan",
        "ADM3_PCODE": "PH1909902",
        "ADM2_EN": "Special Geographic Area",
        "ADM2_PCODE": "PH19099",
        "ADM1_EN": "Bangsamoro Autonomous Region In Muslim Mindanao (BARMM)",
        "ADM1_PCODE": "PH19",
        "ADM0_EN": "Philippines (the)",
        "ADM0_PCODE": "PH",
        "date": "2022-11-09",
        "validOn": "2023-11-06",
        "validTo": null,
        "ADM3_REF": null,
        "ADM3ALT1EN": null,
        "Shape_Leng": 0.715854109269,
        "Shape_Area": 0.00864409721429,
        "AREA_SQKM": 105.576713355,
        "psgc_id": "PH19999",
        "psgc_code": null,
        "psgc_name": null,
        "psgc_status": "mapped-no-psgc",
        "match_confidence": null,
        "psgc_type": "special_geographic_area",
        "match_method": "huc_map"
      },
      "geometry": {
        "type": "MultiPolygon",
        "coordinates": [
          [
            [
              [
                124.87527328600004,
                7.313755230000027
              ],
              [
                124.91047971500006,
                7.303419765000058
              ],
              [
                124.90956944600009,
                7.215872876000049
              ],
              [
                124.86061636400007,
                7.240718134000076
              ],
              [
                124.84900541200011,
                7.191669795000053
              ],
              [
                124.85838519200001,
                7.168437985000025
              ],
              [
                124.848628157,
                7.147523283000055
              ],
              [
                124.81587571900002,
                7.151785265000058
              ],
              [
                124.80222036000009,
                7.141984205000028
              ],
              [
                124.82090561000007,
                7.187797631000024
              ],
              [
                124.80653455800007,
                7.201342605000036
              ],
              [
                124.83702477200006,
                7.232400866000035
              ],
              [
                124.82991667300007,
                7.242462982000063
              ],
              [
                124.83696301200007,
                7.257223418000024
              ],
              [
                124.85118442900011,
                7.25992771500006
              ],
              [
                124.8362779790001,
                7.279524287000072
              ],
              [
                124.85643777400003,
                7.28608345400005
              ],
              [
                124.84801374500012,
                7.295182692000026
              ],
              [
                124.86545697000008,
                7.294235430000072
              ],
              [
                124.86184637200006,
                7.306251954000061
              ],
              [
                124.87527328600004,
                7.313755230000027
              ]
            ]
          ],
          [
            [
              [
                124.8838332250001,
                7.15406798600003
              ],
              [
                124.89287135900008,
                7.130700541000067
              ],
              [
                124.86789944100008,
                7.131724458000065
              ],
              [
                124.8838332250001,
                7.15406798600003
              ]
            ]
          ]
        ]
      }
    },
    {
      "type": "Feature",
      "properties": {
        "ADM3_EN": "Special Geographic Area - Midsayap I",
        "ADM3_PCODE": "PH1909903",
        "ADM2_EN": "Special Geographic Area",
        "ADM2_PCODE": "PH19099",
        "ADM1_EN": "Bangsamoro Autonomous Region In Muslim Mindanao (BARMM)",
        "ADM1_PCODE": "PH19",
        "ADM0_EN": "Philippines (the)",
        "ADM0_PCODE": "PH",
        "date": "2022-11-09",
        "validOn": "2023-11-06",
        "validTo": null,
        "ADM3_REF": null,
        "ADM3ALT1EN": null,
        "Shape_Leng": 0.463561304057,
        "Shape_Area": 0.00378678481795,
        "AREA_SQKM": 46.2604119402,
        "psgc_id": "PH19999",
        "psgc_code": null,
        "psgc_name": null,
        "psgc_status": "mapped-no-psgc",
        "match_confidence": null,
        "psgc_type": "special_geographic_area",
        "match_method": "huc_map"
      },
      "geometry": {
        "type": "MultiPolygon",
        "coordinates": [
          [
            [
              [
                124.46756777700011,
                7.228463736000037
              ],
              [
                124.47451455500004,
                7.207256223000059
              ],
              [
                124.44998205200011,
                7.207310200000052
              ],
              [
                124.45056625000007,
                7.230499030000033
              ],
              [
                124.46756777700011,
                7.228463736000037
              ]
            ]
          ],
          [
            [
              [
                124.53774377800005,
                7.088158932000056
              ],
              [
                124.50976353400006,
                7.084702044000039
              ],
              [
                124.50044639400005,
                7.117158046000043
              ],
              [
                124.4932394220001,
                7.120538450000026
              ],
              [
                124.48470476500006,
                7.121050321000041
              ],
              [
                124.47723141000006,
                7.109388853000041
              ],
              [
                124.48163981900007,
                7.097879081000031
              ],
              [
                124.471425726,
                7.09268557200005
              ],
              [
                124.44505001100003,
                7.110413201000028
              ],
              [
                124.4606424540001,
                7.133282154000028
              ],
              [
                124.46492467300004,
                7.171735246000026
              ],
              [
                124.4824294550001,
                7.170752659000073
              ],
              [
                124.4820925680001,
                7.150595595000027
              ],
              [
                124.51952133100008,
                7.137542698000061
              ],
              [
                124.5219166170001,
                7.099576377000062
              ],
              [
                124.5377773990001,
                7.098844263000046
              ],
              [
                124.53774377800005,
                7.088158932000056
              ]
            ]
          ]
        ]
      }
    },
    {
      "type": "Feature",
      "properties": {
        "ADM3_EN": "Special Geographic Area - Midsayap II",
        "ADM3_PCODE": "PH1909904",
        "ADM2_EN": "Special Geographic Area",
        "ADM2_PCODE": "PH19099",
        "ADM1_EN": "Bangsamoro Autonomous Region In Muslim Mindanao (BARMM)",
        "ADM1_PCODE": "PH19",
        "ADM0_EN": "Philippines (the)",
        "ADM0_PCODE": "PH",
        "date": "2022-11-09",
        "validOn": "2023-11-06",
        "validTo": null,
        "ADM3_REF": null,
        "ADM3ALT1EN": null,
        "Shape_Leng": 0.29956528737,
        "Shape_Area": 0.00412340818739,
        "AREA_SQKM": 50.379445493,
        "psgc_id": "PH19999",
        "psgc_code": null,
        "psgc_name": null,
        "psgc_status": "mapped-no-psgc",
        "match_confidence": null,
        "psgc_type": "special_geographic_area",
        "match_method": "huc_map"
      },
      "geometry": {
        "type": "Polygon",
        "coordinates": [
          [
            [
              124.53774377800005,
              7.088158932000056
            ],
            [
              124.51915130700002,
              7.030999491000046
            ],
            [
              124.50123402500003,
              7.030097615000045
            ],
            [
              124.45619250800007,
              7.060902179000038
            ],
            [
              124.45674244800011,
              7.07967992500005
            ],
            [
              124.48163981900007,
              7.097879081000031
            ],
            [
              124.47723141000006,
              7.109388853000041
            ],
            [
              124.48470476500006,
              7.121050321000041
            ],
            [
              124.50044639400005,
              7.117158046000043
            ],
            [
              124.50976353400006,
              7.084702044000039
            ],
            [
              124.53774377800005,
              7.088158932000056
            ]
          ]
        ]
      }
    },
    {
      "type": "Feature",
      "properties": {
        "ADM3_EN": "Special Geographic Area - Pigkawayan",
        "ADM3_PCODE": "PH1909905",
        "ADM2_EN": "Special Geographic Area",
        "ADM2_PCODE": "PH19099",
        "ADM1_EN": "Bangsamoro Autonomous Region In Muslim Mindanao (BARMM)",
        "ADM1_PCODE": "PH19",
        "ADM0_EN": "Philippines (the)",
        "ADM0_PCODE": "PH",
        "date": "2022-11-09",
        "validOn": "2023-11-06",
        "validTo": null,
        "ADM3_REF": null,
        "ADM3ALT1EN": null,
        "Shape_Leng": 0.42747596138,
        "Shape_Area": 0.00397614262145,
        "AREA_SQKM": 48.5605722373,
        "psgc_id": "PH19999",
        "psgc_code": null,
        "psgc_name": null,
        "psgc_status": "mapped-no-psgc",
        "match_confidence": null,
        "psgc_type": "special_geographic_area",
        "match_method": "huc_map"
      },
      "geometry": {
        "type": "MultiPolygon",
        "coordinates": [
          [
            [
              [
                124.40575238200006,
                7.363209477000055
              ],
              [
                124.41315535800004,
                7.373654388000034
              ],
              [
                124.45200512000008,
                7.423535557000037
              ],
              [
                124.44759852600009,
                7.365182608000055
              ],
              [
                124.40575238200006,
                7.363209477000055
              ]
            ]
          ],
          [
            [
              [
                124.40711940300002,
                7.222196041000075
              ],
              [
                124.39464956800009,
                7.224298599000065
              ],
              [
                124.37708222800006,
                7.169739380000067
              ],
              [
                124.33983748000003,
                7.169215253000061
              ],
              [
                124.36626343700004,
                7.235560970000051
              ],
              [
                124.41539658400006,
                7.235743985000056
              ],
              [
                124.40711940300002,
                7.222196041000075
              ]
            ]
          ]
        ]
      }
    },
    {
      "type": "Feature",
      "properties": {
        "ADM3_EN": "Special Geographic Area - Pikit I",
        "ADM3_PCODE": "PH1909906",
        "ADM2_EN": "Special Geographic Area",
        "ADM2_PCODE": "PH19099",
        "ADM1_EN": "Bangsamoro Autonomous Region In Muslim Mindanao (BARMM)",
        "ADM1_PCODE": "PH19",
        "ADM0_EN": "Philippines (the)",
        "ADM0_PCODE": "PH",
        "date": "2022-11-09",
        "validOn": "2023-11-06",
        "validTo": null,
        "ADM3_REF": null,
        "ADM3ALT1EN": null,
        "Shape_Leng": 0.825308783174,
        "Shape_Area": 0.00485710154337,
        "AREA_SQKM": 59.3378427063,
        "psgc_id": "PH19999",
        "psgc_code": null,
        "psgc_name": null,
        "psgc_status": "mapped-no-psgc",
        "match_confidence": null,
        "psgc_type": "special_geographic_area",
        "match_method": "huc_map"
      },
      "geometry": {
        "type": "MultiPolygon",
        "coordinates": [
          [
            [
              [
                124.7039443540001,
                7.197747157000038
              ],
              [
                124.7124552780001,
                7.183625856000049
              ],
              [
                124.70107615000006,
                7.177725300000077
              ],
              [
                124.69462501100008,
                7.182765975000052
              ],
              [
                124.69763091800007,
                7.16549357100007
              ],
              [
                124.69157285900008,
                7.162598031000073
              ],
              [
                124.69763091800007,
                7.158094415000051
              ],
              [
                124.67920084800005,
                7.152254865000032
              ],
              [
                124.68342779300008,
                7.171674949000021
              ],
              [
                124.66615295300005,
                7.192941088000055
              ],
              [
                124.68010751500003,
                7.192794583000023
              ],
              [
                124.67641302200002,
                7.203366879000043
              ],
              [
                124.68202988900009,
                7.205854154000065
              ],
              [
                124.7039443540001,
                7.197747157000038
              ]
            ]
          ],
          [
            [
              [
                124.73650988600002,
                7.113428433000024
              ],
              [
                124.72544583500007,
                7.106283623000024
              ],
              [
                124.73279874600007,
                7.096606915000052
              ],
              [
                124.72322608800005,
                7.086930206000034
              ],
              [
                124.7096294800001,
                7.100683858000025
              ],
              [
                124.7123432410001,
                7.079361444000028
              ],
              [
                124.6996467130001,
                7.06744027600007
              ],
              [
                124.6920710070001,
                7.089715962000071
              ],
              [
                124.66457708100006,
                7.100798032000057
              ],
              [
                124.67581631100006,
                7.134801803000073
              ],
              [
                124.70744357700005,
                7.116904495000028
              ],
              [
                124.73650988600002,
                7.113428433000024
              ]
            ]
          ],
          [
            [
              [
                124.62493449500005,
                7.064025092000065
              ],
              [
                124.62443990800011,
                7.090299638000033
              ],
              [
                124.61461043600002,
                7.089431201000025
              ],
              [
                124.61169385700009,
                7.108136129000059
              ],
              [
                124.61719935000008,
                7.123848531000021
              ],
              [
                124.63107595500003,
                7.125747281000031
              ],
              [
                124.63551803500002,
                7.116306791000056
              ],
              [
                124.6262059280001,
                7.095174813000028
              ],
              [
                124.6471812850001,
                7.063937114000055
              ],
              [
                124.62493449500005,
                7.064025092000065
              ]
            ]
          ],
          [
            [
              [
                124.69010008700002,
                7.073352400000033
              ],
              [
                124.68712711,
                7.052724244000046
              ],
              [
                124.66456738900001,
                7.062823792000074
              ],
              [
                124.66892037100001,
                7.086446671000033
              ],
              [
                124.69010008700002,
                7.073352400000033
              ]
            ]
          ]
        ]
      }
    },
    {
      "type": "Feature",
      "properties": {
        "ADM3_EN": "Special Geographic Area - Pikit II",
        "ADM3_PCODE": "PH1909907",
        "ADM2_EN": "Special Geographic Area",
        "ADM2_PCODE": "PH19099",
        "ADM1_EN": "Bangsamoro Autonomous Region In Muslim Mindanao (BARMM)",
        "ADM1_PCODE": "PH19",
        "ADM0_EN": "Philippines (the)",
        "ADM0_PCODE": "PH",
        "date": "2022-11-09",
        "validOn": "2023-11-06",
        "validTo": null,
        "ADM3_REF": null,
        "ADM3ALT1EN": null,
        "Shape_Leng": 0.600365996623,
        "Shape_Area": 0.00662852573434,
        "AREA_SQKM": 80.9999723947,
        "psgc_id": "PH19999",
        "psgc_code": null,
        "psgc_name": null,
        "psgc_status": "mapped-no-psgc",
        "match_confidence": null,
        "psgc_type": "special_geographic_area",
        "match_method": "huc_map"
      },
      "geometry": {
        "type": "Polygon",
        "coordinates": [
          [
            [
              124.71662410500005,
              7.019548900000075
            ],
            [
              124.70593703000009,
              7.006701242000076
            ],
            [
              124.72158600500006,
              6.998578679000047
            ],
            [
              124.70306805100006,
              6.991015007000044
            ],
            [
              124.70765096500008,
              6.980954952000047
            ],
            [
              124.68525802600004,
              6.973540318000062
            ],
            [
              124.69125680000002,
              6.962250700000027
            ],
            [
              124.67877487900012,
              6.94660172500005
            ],
            [
              124.66498887700004,
              6.947644990000072
            ],
            [
              124.65675453500012,
              6.961356473000023
            ],
            [
              124.64762596600008,
              6.956028369000023
            ],
            [
              124.62736147500004,
              6.974825770000052
            ],
            [
              124.58614784800011,
              6.96985163100004
            ],
            [
              124.55657906800002,
              7.010663191000049
            ],
            [
              124.56594044700012,
              7.015494871000044
            ],
            [
              124.57602387800011,
              6.993941117000077
            ],
            [
              124.63843500500002,
              6.995018153000046
            ],
            [
              124.6378397200001,
              7.034306416000049
            ],
            [
              124.6670154310001,
              7.034358027000053
            ],
            [
              124.66700306700011,
              7.049059172000057
            ],
            [
              124.6870667280001,
              7.034327589000043
            ],
            [
              124.68164999500004,
              7.01214174200004
            ],
            [
              124.71662410500005,
              7.019548900000075
            ]
          ]
        ]
      }
    },
    {
      "type": "Feature",
      "properties": {
        "ADM3_EN": "Special Geographic Area - Pikit III",
        "ADM3_PCODE": "PH1909908",
        "ADM2_EN": "Special Geographic Area",
        "ADM2_PCODE": "PH19099",
        "ADM1_EN": "Bangsamoro Autonomous Region In Muslim Mindanao (BARMM)",
        "ADM1_PCODE": "PH19",
        "ADM0_EN": "Philippines (the)",
        "ADM0_PCODE": "PH",
        "date": "2022-11-09",
        "validOn": "2023-11-06",
        "validTo": null,
        "ADM3_REF": null,
        "ADM3ALT1EN": null,
        "Shape_Leng": 0.569338306493,
        "Shape_Area": 0.00470736792934,
        "AREA_SQKM": 57.5168165948,
        "psgc_id": "PH19999",
        "psgc_code": null,
        "psgc_name": null,
        "psgc_status": "mapped-no-psgc",
        "match_confidence": null,
        "psgc_type": "special_geographic_area",
        "match_method": "huc_map"
      },
      "geometry": {
        "type": "Polygon",
        "coordinates": [
          [
            [
              124.61461043600002,
              7.089431201000025
            ],
            [
              124.62443990800011,
              7.090299638000033
            ],
            [
              124.6255105570001,
              7.048378659000036
            ],
            [
              124.6378397200001,
              7.034306416000049
            ],
            [
              124.63843500500002,
              6.995018153000046
            ],
            [
              124.60947618800003,
              6.994183876000022
            ],
            [
              124.61374856400005,
              7.036584363000031
            ],
            [
              124.5986204400001,
              7.039927823000028
            ],
            [
              124.59334783400004,
              7.049888898000063
            ],
            [
              124.56662752200009,
              7.051214263000077
            ],
            [
              124.55571046600005,
              7.023554212000022
            ],
            [
              124.54641240900003,
              7.01925284400005
            ],
            [
              124.53100334400006,
              7.031767729000023
            ],
            [
              124.54002112,
              7.051938963000055
            ],
            [
              124.58432379600004,
              7.065773281000077
            ],
            [
              124.58076324500007,
              7.083439091000059
            ],
            [
              124.56165952000003,
              7.08330214700004
            ],
            [
              124.56094382300012,
              7.121408170000052
            ],
            [
              124.5734668880001,
              7.119293407000043
            ],
            [
              124.57293732100004,
              7.096565168000041
            ],
            [
              124.58944771100005,
              7.080767951000041
            ],
            [
              124.61031446700008,
              7.078884297000059
            ],
            [
              124.61461043600002,
              7.089431201000025
            ]
          ]
        ]
      }
    }
  ]
}