{
  "type": "FeatureCollection",
  "metadata": {
    "psgc_type": "unresolved",
    "psgc_version": "2023-10-24",
    "namria_version": "2023-11-06",
    "feature_count": 6,
    "match_summary": {
      "exact": 0,
      "huc_map": 4,
      "fuzzy": 0,
      "non_administrative": 0,
      "unresolved": 2
    }
  },
  "features": [
    {
      "type": "Feature",
      "properties": {
        "ADM2_EN": "Metropolitan Manila First District",
        "ADM2_PCODE": "PH13039",
        "ADM1_EN": "National Capital Region (NCR)",
        "ADM1_PCODE": "PH13",
        "ADM0_EN": "Philippines (the)",
        "ADM0_PCODE": "PH",
        "date": "2022-11-09",
        "validOn": "2023-11-06",
        "validTo": null,
        "Shape_Leng": 0.600152105726,
        "Shape_Area": 0.00351963740284,
        "ADM2ALT1EN": null,
        "AREA_SQKM": 41.9600900619,
        "psgc_id": null,
        "psgc_code": null,
        "psgc_name": "Metropolitan Manila First District",
        "psgc_status": "non-standard",
        "match_confidence": null,
        "psgc_constituent_codes": [
          "PH1380600"
        ],
        "psgc_type": "mm_district",
        "match_method": "huc_map"
      },
      "geometry": {
        "type": "Polygon",
        "coordinates": [
          [
            [
              120.99197344400011,
              14.636527028000046
            ],
            [
              120.98988594100001,
              14.62564046500006
            ],
            [
              121.0261685910001,
              14.59220807500003
            ],
            [
              120.99905087700006,
              14.56189927500003
            ],
            [
              120.98751161400003,
              14.558607406000021
            ],
            [
              120.9727582050001,
              14.583148978000054
            ],
            [
              120.96194519000005,
              14.583232450000025
            ],
            [
              120.96573570500004,
              14.587513071000046
            ],
            [
              120.96305733500003,
              14.59382271800007
            ],
            [
              120.95565543000009,
              14.572505101000047
            ],
            [
              120.95386802400003,
              14.591119100000071
            ],
            [
              120.96752885900003,
              14.595318969000061
            ],
            [
              120.96677920700006,
              14.596419792000063
            ],
            [
              120.9433715880001,
              14.594770830000073
            ],
            [
              120.93279649300007,
              14.602898354000047
            ],
            [
              120.954210439,
              14.601105148000045
            ],
            [
              120.94776581500003,
              14.607689395000023
            ],
            [
              120.94398653000007,
              14.617861197000025
            ],
            [
              120.95633249800005,
              14.600722136000059
            ],
            [
              120.9604671830001,
              14.600846682000054
            ],
            [
              120.95359576700002,
              14.625833852000028
            ],
            [
              120.95928604800008,
              14.629389533000051
            ],
            [
              120.94140014700008,
              14.634242946000029
            ],
            [
              120.99197344400011,
              14.636527028000046
            ]
          ]
        ]
      }
    },
    {
      "type": "Feature",
      "properties": {
        "ADM2_EN": "Metropolitan Manila Second District",
        "ADM2_PCODE": "PH13074",
        "ADM1_EN": "National Capital Region (NCR)",
        "ADM1_PCODE": "PH13",
        "ADM0_EN": "Philippines (the)",
        "ADM0_PCODE": "PH",
        "date": "2022-11-09",
        "validOn": "2023-11-06",
        "validTo": null,
        "Shape_Leng": 0.94828501275,
        "Shape_Area": 0.0196134438129,
        "ADM2ALT1EN": null,
        "AREA_SQKM": 233.767124713,
        "psgc_id": null,
        "psgc_code": null,
        "psgc_name": "Metropolitan Manila Second District",
        "psgc_status": "non-standard",
        "match_confidence": null,
        "psgc_constituent_codes": [
          "PH1380500",
          "PH1380700",
          "PH1381200",
          "PH1381300",
          "PH1381400"
        ],
        "psgc_type": "mm_district",
        "match_method": "huc_map"
      },
      "geometry": {
        "type": "Polygon",
        "coordinates": [
          [
            [
              121.1033378410001,
              14.531997657000034
            ],
            [
              121.09436799700006,
              14.546736230000022
            ],
            [
              121.06431954100003,
              14.551917179000043
            ],
            [
              121.06584092700007,
              14.560585451000065
            ],
            [
              121.03416050400006,
              14.56738795900003
            ],
            [
              121.01723501100003,
              14.579737567000052
            ],
            [
              121.02587265900002,
              14.59530157100005
            ],
            [
              120.98988594100001,
              14.62564046500006
            ],
            [
              120.99127371500003,
              14.639904883000042
            ],
            [
              121.00032029300007,
              14.664603180000029
            ],
            [
              121.02265398600002,
              14.687140174000035
            ],
            [
              121.01358451300007,
              14.716359350000062
            ],
            [
              121.02808188400002,
              14.733364325000025
            ],
            [
              121.04083690900006,
              14.742111187000035
            ],
            [
              121.07503917800011,
              14.740194067000061
            ],
            [
              121.08593385900008,
              14.758682793000048
            ],
            [
              121.13398305800001,
              14.777684855000075
            ],
            [
              121.11776424000004,
              14.746158470000069
            ],
            [
              121.11805757700006,
              14.729549361000068
            ],
            [
              121.131469,
              14.723613300000068
            ],
            [
              121.12375939200001,
              14.707338821000064
            ],
            [
              121.11599242800003,
              14.709234545000072
            ],
            [
              121.12010187400006,
              14.698593123000023
            ],
            [
              121.111611863,
              14.695953082000074
            ],
            [
              121.10670234300005,
              14.675499389000038
            ],
            [
              121.13107957900002,
              14.667950382000072
            ],
            [
              121.13472785300007,
              14.654714042000023
            ],
            [
              121.13001300700012,
              14.634344953000038
            ],
            [
              121.10853608200011,
              14.636495850000074
            ],
            [
              121.10187866500007,
              14.620657343000062
            ],
            [
              121.11045450000006,
              14.592334529000027
            ],
            [
              121.10369517200002,
              14.593668617000048
            ],
            [
              121.10905753300005,
              14.580946777000065
            ],
            [
              121.0958914470001,
              14.564003354000022
            ],
            [
              121.10972207600003,
              14.546624930000064
            ],
            [
              121.1033378410001,
              14.531997657000034
            ]
          ]
        ]
      }
    },
    {
      "type": "Feature",
      "properties": {
        "ADM2_EN": "Metropolitan Manila Third District",
        "ADM2_PCODE": "PH13075",
        "ADM1_EN": "National Capital Region (NCR)",
        "ADM1_PCODE": "PH13",
        "ADM0_EN": "Philippines (the)",
        "ADM0_PCODE": "PH",
        "date": "2022-11-09",
        "validOn": "2023-11-06",
        "validTo": null,
        "Shape_Leng": 0.949302257892,
        "Shape_Area": 0.0105817123847,
        "ADM2ALT1EN": null,
        "AREA_SQKM": 126.090073107,
        "psgc_id": null,
        "psgc_code": null,
        "psgc_name": "Metropolitan Manila Third District",
        "psgc_status": "non-standard",
        "match_confidence": null,
        "psgc_constituent_codes": [
          "PH1380100",
          "PH1380400",
          "PH1380900",
          "PH1381600"
        ],
        "psgc_type": "mm_district",
        "match_method": "huc_map"
      },
      "geometry": {
        "type": "Polygon",
        "coordinates": [
          [
            [
              121.09950653900012,
              14.76920958900007
            ],
            [
              121.07503917800011,
              14.740194067000061
            ],
            [
              121.04083690900006,
              14.742111187000035
            ],
            [
              121.01443080000001,
              14.719158309000022
            ],
            [
              121.024579162,
              14.693333310000071
            ],
            [
              121.00032029300007,
              14.664603180000029
            ],
            [
              120.99313591600003,
              14.636168197000075
            ],
            [
              120.94898265100005,
              14.635258663000059
            ],
            [
              120.95458269800008,
              14.636833262000039
            ],
            [
              120.94800064600008,
              14.652741007000031
            ],
            [
              120.90639761800003,
              14.700691280000058
            ],
            [
              120.91841488700004,
              14.712960826000028
            ],
            [
              120.94533687500007,
              14.688489937000043
            ],
            [
              120.95312750500011,
              14.694240067000067
            ],
            [
              120.92669637300003,
              14.735891321000054
            ],
            [
              120.9492786620001,
              14.734196689000044
            ],
            [
              120.9595504240001,
              14.719873626000037
            ],
            [
              120.98298298400005,
              14.725317432000054
            ],
            [
              120.97852281100006,
              14.734806719000062
            ],
            [
              120.98898521500007,
              14.757223791000058
            ],
            [
              121.0025716340001,
              14.75341491000006
            ],
            [
              121.02402399100004,
              14.763034879000031
            ],
            [
              121.03060207100009,
              14.784248399000035
            ],
            [
              121.09950653900012,
              14.76920958900007
            ]
          ]
        ]
      }
    },
    {
      "type": "Feature",
      "properties": {
        "ADM2_EN": "Metropolitan Manila Fourth District",
        "ADM2_PCODE": "PH13076",
        "ADM1_EN": "National Capital Region (NCR)",
        "ADM1_PCODE": "PH13",
        "ADM0_EN": "Philippines (the)",
        "ADM0_PCODE": "PH",
        "date": "2022-11-09",
        "validOn": "2023-11-06",
        "validTo": null,
        "Shape_Leng": 0.933806172588,
        "Shape_Area": 0.0164924119308,
        "ADM2ALT1EN": null,
        "AREA_SQKM": 196.722285152,
        "psgc_id": null,
        "psgc_code": null,
        "psgc_name": "Metropolitan Manila Fourth District",
        "psgc_status": "non-standard",
        "match_confidence": null,
        "psgc_constituent_codes": [
          "PH1380200",
          "PH1380300",
          "PH1380800",
          "PH1381000",
          "PH1381100",
          "PH1381701",
          "PH1381500"
        ],
        "psgc_type": "mm_district",
        "match_method": "huc_map"
      },
      "geometry": {
        "type": "Polygon",
        "coordinates": [
          [
            [
              121.1033378410001,
              14.531997657000034
            ],
            [
              121.0861635340001,
              14.506183798000052
            ],
            [
              121.06932934800011,
              14.506686393000052
            ],
            [
              121.0621771220001,
              14.487713453000026
            ],
            [
              121.05167949500003,
              14.439392591000058
            ],
            [
              121.0573845020001,
              14.37863958500003
            ],
            [
              121.04848403300002,
              14.367288803000065
            ],
            [
              121.02927848000002,
              14.365855122000028
            ],
            [
              121.01945223300004,
              14.353054343000053
            ],
            [
              121.00689103200011,
              14.353943146000063
            ],
            [
              121.00785481900004,
              14.390869810000027
            ],
            [
              120.97300846900009,
              14.44075715100007
            ],
            [
              120.96595096500005,
              14.465177050000023
            ],
            [
              120.98251697300009,
              14.491630285000042
            ],
            [
              120.97202426800004,
              14.481402206000041
            ],
            [
              120.9756112550001,
              14.492690237000033
            ],
            [
              120.98483239300003,
              14.503318093000075
            ],
            [
              120.98533725400011,
              14.492006695000043
            ],
            [
              120.9897418380001,
              14.502586016000066
            ],
            [
              120.974211921,
              14.508107632000076
            ],
            [
              120.98059530000012,
              14.518783126000073
            ],
            [
              120.97758533600006,
              14.555501485000036
            ],
            [
              120.98014807800007,
              14.563650662000043
            ],
            [
              120.9823795740001,
              14.558159210000042
            ],
            [
              120.9988221530001,
              14.561716357000023
            ],
            [
              121.01761120300011,
              14.579408116000025
            ],
            [
              121.03416050400006,
              14.56738795900003
            ],
            [
              121.06584092700007,
              14.560585451000065
            ],
            [
              121.06431954100003,
              14.551917179000043
            ],
            [
              121.09436799700006,
              14.546736230000022
            ],
            [
              121.1033378410001,
              14.531997657000034
            ]
          ]
        ]
      }
    },
    {
      "type": "Feature",
      "properties": {
        "ADM4_EN": "Dadiangas South",
        "ADM4_PCODE": "PH1206303036",
        "ADM4_REF": null,
        "ADM3_EN": "General Santos City (Dadiangas)",
        "ADM3_PCODE": "PH1206303",
        "ADM2_EN": "South Cotabato",
        "ADM2_PCODE": "PH12063",
        "ADM1_EN": "Region XII (Soccsksargen)",
        "ADM1_PCODE": "PH12",
        "ADM0_EN": "Philippines (the)",
        "ADM0_PCODE": "PH",
        "date": "2022-11-09",
        "validOn": "2023-11-06",
        "validTo": null,
        "Shape_Leng": 0.0311498840079,
        "Shape_Area": 5.11550255039e-05,
        "AREA_SQKM": 0.626189498377,
        "psgc_status": "unmatched",
        "psgc_type": "unresolved",
        "match_method": "unresolved",
        "sga_member": false
      },
      "geometry": {
        "type": "Polygon",
        "coordinates": [
          [
            [
              125.17952186200012,
              6.113616661000037
            ],
            [
              125.17950840500009,
              6.105930357000034
            ],
            [
              125.17177843700006,
              6.106150471000035
            ],
            [
              125.17175594100001,
              6.111540539000032
            ],
            [
              125.17952186200012,
              6.113616661000037
            ]
          ]
        ]
      }
    },
    {
      "type": "Feature",
      "properties": {
        "ADM4_EN": "Pedtad",
        "ADM4_PCODE": "PH1909902003",
        "ADM4_REF": null,
        "ADM3_EN": "Special Geographic Area - Kabacan",
        "ADM3_PCODE": "PH1909902",
        "ADM2_EN": "Special Geographic Area",
        "ADM2_PCODE": "PH19099",
        "ADM1_EN": "Bangsamoro Autonomous Region In Muslim Mindanao (BARMM)",
        "ADM1_PCODE": "PH19",
        "ADM0_EN": "Philippines (the)",
        "ADM0_PCODE": "PH",
        "date": "2022-11-09",
        "validOn": "2023-11-06",
        "validTo": null,
        "Shape_Leng": 0.162816691337,
        "Shape_Area": 0.00122315662405,
        "AREA_SQKM": 14.9415867808,
        "psgc_status": "unmatched",
        "psgc_type": "unresolved",
        "match_method": "unresolved",
        "sga_member": true
      },
      "geometry": {
        "type": "Polygon",
        "coordinates": [
          [
            [
              124.82002284300006,
              7.18094032700003
            ],
            [
              124.85838519200001,
              7.168437985000025
            ],
            [
              124.848628157,
              7.147523283000055
            ],
            [
              124.81587571900002,
              7.151785265000058
            ],
            [
              124.80222036000009,
              7.141984205000028
            ],
            [
              124.82002284300006,
              7.18094032700003
            ]
          ]
        ]
      }
    }
  ]
}